SENTINEL-6A             
1 46984U 20086A   26200.01853982 -.00000058  00000+0  14563-4 0  9999
2 46984  66.0411  68.9392 0007785 269.7181  90.2942 12.80930206264402
SENTINEL-6B             
1 66514U 25264A   26200.01888776 -.00000055  00000+0  24712-4 0  9996
2 66514  66.0411  69.0646 0007844 268.6081  91.4036 12.80930222 31249
